start=new Date('2023-02-25T00:00:00.000Z').valueOf();
sats=[{"NORAD_CAT_ID":"51125","CLASSIFICATION_TYPE":"U","DECAY_DATE":null,"MEAN_MOTION":"15.08864304","MEAN_MOTION_DOT":"0.00007345","LAUNCH_DATE":"2022-01-19","INCLINATION":"53.2143","PERIAPSIS":"538.586","RCS_SIZE":"LARGE","MEAN_ELEMENT_THEORY":"SGP4","REV_AT_EPOCH":"6133","EPHEMERIS_TYPE":"0","APOAPSIS":"540.756","BSTAR":"0.00047881000000","TLE_LINE2":"2 51125  53.2143 236.7165 0001568  75.5801 284.5365 15.08864304 61335","TLE_LINE1":"1 51125U 22005X   23055.89179955  .00007345  00000-0  47881-3 0  9991","SEMIMAJOR_AXIS":"6917.806","PERIOD":"95.436","FILE":"3835059","ELEMENT_SET_NO":"999","ARG_OF_PERICENTER":"75.5801","GP_ID":"226778159","ECCENTRICITY":"0.00015680","OBJECT_NAME":"STARLINK-3387","RA_OF_ASC_NODE":"236.7165","COUNTRY_CODE":"US","EPOCH":"2023-02-24T21:24:11.481120","SITE":"AFETR","MEAN_MOTION_DDOT":"0.0000000000000","REF_FRAME":"TEME","TIME_SYSTEM":"UTC","MEAN_ANOMALY":"284.5365","OBJECT_TYPE":"PAYLOAD","CENTER_NAME":"EARTH","OBJECT_ID":"2022-005X"},{"RA_OF_ASC_NODE":"236.6829","OBJECT_NAME":"STARLINK-3386","GP_ID":"226778908","ECCENTRICITY":"0.00014910","ELEMENT_SET_NO":"999","ARG_OF_PERICENTER":"89.0755","FILE":"3835059","PERIOD":"95.438","SEMIMAJOR_AXIS":"6917.887","TLE_LINE1":"1 51126U 22005Y   23055.89916742  .00000631  00000-0  57762-4 0  9996","TLE_LINE2":"2 51126  53.2139 236.6829 0001491  89.0755 271.0408 15.08837912 61356","BSTAR":"0.00005776200000","APOAPSIS":"540.783","EPHEMERIS_TYPE":"0","REV_AT_EPOCH":"6135","RCS_SIZE":"LARGE","MEAN_ELEMENT_THEORY":"SGP4","INCLINATION":"53.2139","PERIAPSIS":"538.720","LAUNCH_DATE":"2022-01-19","MEAN_MOTION_DOT":"0.00000631","MEAN_MOTION":"15.08837912","DECAY_DATE":null,"CLASSIFICATION_TYPE":"U","NORAD_CAT_ID":"51126","OBJECT_ID":"2022-005Y","CENTER_NAME":"EARTH","OBJECT_TYPE":"PAYLOAD","MEAN_ANOMALY":"271.0408","TIME_SYSTEM":"UTC","MEAN_MOTION_DDOT":"0.0000000000000","REF_FRAME":"TEME","SITE":"AFETR","EPOCH":"2023-02-24T21:34:48.065088","COUNTRY_CODE":"US"},{"MEAN_ELEMENT_THEORY":"SGP4","RCS_SIZE":"LARGE","APOAPSIS":"540.538","REV_AT_EPOCH":"6132","EPHEMERIS_TYPE":"0","MEAN_MOTION_DOT":"0.00001540","MEAN_MOTION":"15.08841758","PERIAPSIS":"538.942","INCLINATION":"53.2138","LAUNCH_DATE":"2022-01-19","DECAY_DATE":null,"CLASSIFICATION_TYPE":"U","NORAD_CAT_ID":"51127","OBJECT_NAME":"STARLINK-3370","ECCENTRICITY":"0.00011540","GP_ID":"226778658","RA_OF_ASC_NODE":"237.2904","FILE":"3835059","ELEMENT_SET_NO":"999","ARG_OF_PERICENTER":"86.7310","SEMIMAJOR_AXIS":"6917.875","TLE_LINE1":"1 51127U 22005Z   23055.76204639  .00001540  00000-0  11482-3 0  9996","PERIOD":"95.437","TLE_LINE2":"2 51127  53.2138 237.2904 0001154  86.7310 273.3814 15.08841758 61320","BSTAR":"0.00011482000000","REF_FRAME":"TEME","MEAN_MOTION_DDOT":"0.0000000000000","TIME_SYSTEM":"UTC","SITE":"AFETR","EPOCH":"2023-02-24T18:17:20.808096","COUNTRY_CODE":"US","CENTER_NAME":"EARTH","OBJECT_ID":"2022-005Z","MEAN_ANOMALY":"273.3814","OBJECT_TYPE":"PAYLOAD"},{"CLASSIFICATION_TYPE":"U","NORAD_CAT_ID":"51128","DECAY_DATE":null,"INCLINATION":"53.2140","PERIAPSIS":"538.988","LAUNCH_DATE":"2022-01-19","MEAN_MOTION_DOT":"0.00014339","MEAN_MOTION":"15.08854337","APOAPSIS":"540.415","REV_AT_EPOCH":"6133","EPHEMERIS_TYPE":"0","MEAN_ELEMENT_THEORY":"SGP4","RCS_SIZE":"LARGE","TLE_LINE2":"2 51128  53.2140 236.7765 0001032  78.8788 281.2320 15.08854337 61337","BSTAR":"0.00091680000000","PERIOD":"95.437","SEMIMAJOR_AXIS":"6917.837","TLE_LINE1":"1 51128U 22005AA  23055.87614304  .00014339  00000-0  91680-3 0  9991","ELEMENT_SET_NO":"999","ARG_OF_PERICENTER":"78.8788","FILE":"3835059","RA_OF_ASC_NODE":"236.7765","OBJECT_NAME":"STARLINK-3400","ECCENTRICITY":"0.00010320","GP_ID":"226777411","EPOCH":"2023-02-24T21:01:38.758656","COUNTRY_CODE":"US","SITE":"AFETR","TIME_SYSTEM":"UTC","REF_FRAME":"TEME","MEAN_MOTION_DDOT":"0.0000000000000","OBJECT_TYPE":"PAYLOAD","MEAN_ANOMALY":"281.2320","OBJECT_ID":"2022-005AA","CENTER_NAME":"EARTH"},{"ELEMENT_SET_NO":"999","ARG_OF_PERICENTER":"71.3059","FILE":"3834392","RA_OF_ASC_NODE":"236.2356","OBJECT_NAME":"STARLINK-3396","ECCENTRICITY":"0.00014290","GP_ID":"226738874","TLE_LINE2":"2 51129  53.2143 236.2356 0001429  71.3059  89.5573 15.07164859 62489","BSTAR":"0.00515470000000","PERIOD":"95.544","SEMIMAJOR_AXIS":"6923.005","TLE_LINE1":"1 51129U 22005AB  23056.00001157  .00078976  00000-0  51547-2 0  9998","PERIAPSIS":"543.881","INCLINATION":"53.2143","LAUNCH_DATE":"2022-01-19","MEAN_MOTION_DOT":"0.00078976","MEAN_MOTION":"15.07164859","APOAPSIS":"545.860","EPHEMERIS_TYPE":"0","REV_AT_EPOCH":"6248","MEAN_ELEMENT_THEORY":"SGP4","RCS_SIZE":"LARGE","CLASSIFICATION_TYPE":"U","NORAD_CAT_ID":"51129","DECAY_DATE":null,"OBJECT_ID":"2022-005AB","CENTER_NAME":"EARTH","OBJECT_TYPE":"PAYLOAD","MEAN_ANOMALY":"89.5573","TIME_SYSTEM":"UTC","MEAN_MOTION_DDOT":"0.0000000000000","REF_FRAME":"TEME","EPOCH":"2023-02-25T00:00:00.999648","COUNTRY_CODE":"US","SITE":"AFETR"},{"DECAY_DATE":null,"CLASSIFICATION_TYPE":"U","NORAD_CAT_ID":"51130","APOAPSIS":"540.608","REV_AT_EPOCH":"6132","EPHEMERIS_TYPE":"0","RCS_SIZE":"LARGE","MEAN_ELEMENT_THEORY":"SGP4","PERIAPSIS":"538.755","INCLINATION":"53.2139","LAUNCH_DATE":"2022-01-19","MEAN_MOTION_DOT":"0.00006458","MEAN_MOTION":"15.08860942","PERIOD":"95.436","SEMIMAJOR_AXIS":"6917.816","TLE_LINE1":"1 51130U 22005AC  23055.82092897  .00006458  00000-0  42321-3 0  9997","BSTAR":"0.00042321000000","TLE_LINE2":"2 51130  53.2139 237.0267 0001339  81.7593 278.3551 15.08860942 61327","RA_OF_ASC_NODE":"237.0267","OBJECT_NAME":"STARLINK-3395","ECCENTRICITY":"0.00013390","GP_ID":"226778410","ELEMENT_SET_NO":"999","ARG_OF_PERICENTER":"81.7593","FILE":"3835059","SITE":"AFETR","EPOCH":"2023-02-24T19:42:08.263008","COUNTRY_CODE":"US","TIME_SYSTEM":"UTC","REF_FRAME":"TEME","MEAN_MOTION_DDOT":"0.0000000000000","OBJECT_TYPE":"PAYLOAD","MEAN_ANOMALY":"278.3551","OBJECT_ID":"2022-005AC","CENTER_NAME":"EARTH"},{"SEMIMAJOR_AXIS":"6917.840","TLE_LINE1":"1 51131U 22005AD  23055.87979184  .00002302  00000-0  16263-3 0  9996","PERIOD":"95.437","BSTAR":"0.00016263000000","TLE_LINE2":"2 51131  53.2130 236.7640 0001042  97.7558 262.3552 15.08853327 61333","OBJECT_NAME":"STARLINK-3388","ECCENTRICITY":"0.00010420","GP_ID":"226779158","RA_OF_ASC_NODE":"236.7640","FILE":"3835059","ARG_OF_PERICENTER":"97.7558","ELEMENT_SET_NO":"999","DECAY_DATE":null,"CLASSIFICATION_TYPE":"U","NORAD_CAT_ID":"51131","MEAN_ELEMENT_THEORY":"SGP4","RCS_SIZE":"LARGE","APOAPSIS":"540.425","EPHEMERIS_TYPE":"0","REV_AT_EPOCH":"6133","MEAN_MOTION_DOT":"0.00002302","MEAN_MOTION":"15.08853327","PERIAPSIS":"538.984","INCLINATION":"53.2130","LAUNCH_DATE":"2022-01-19","MEAN_ANOMALY":"262.3552","OBJECT_TYPE":"PAYLOAD","CENTER_NAME":"EARTH","OBJECT_ID":"2022-005AD","SITE":"AFETR","EPOCH":"2023-02-24T21:06:54.014976","COUNTRY_CODE":"US","MEAN_MOTION_DDOT":"0.0000000000000","REF_FRAME":"TEME","TIME_SYSTEM":"UTC"},{"MEAN_MOTION_DDOT":"0.0000000000000","REF_FRAME":"TEME","TIME_SYSTEM":"UTC","SITE":"AFETR","COUNTRY_CODE":"US","EPOCH":"2023-02-24T21:12:13.324320","CENTER_NAME":"EARTH","OBJECT_ID":"2022-005AE","MEAN_ANOMALY":"270.9250","OBJECT_TYPE":"PAYLOAD","RCS_SIZE":"LARGE","MEAN_ELEMENT_THEORY":"SGP4","REV_AT_EPOCH":"6133","EPHEMERIS_TYPE":"0","APOAPSIS":"540.501","MEAN_MOTION":"15.08838749","MEAN_MOTION_DOT":"0.00000394","LAUNCH_DATE":"2022-01-19","INCLINATION":"53.2138","PERIAPSIS":"538.997","DECAY_DATE":null,"NORAD_CAT_ID":"51132","CLASSIFICATION_TYPE":"U","ECCENTRICITY":"0.00010870","GP_ID":"226777911","OBJECT_NAME":"STARLINK-3393","RA_OF_ASC_NODE":"236.7458","FILE":"3835059","ARG_OF_PERICENTER":"89.1866","ELEMENT_SET_NO":"999","TLE_LINE1":"1 51132U 22005AE  23055.88348755  .00000394  00000-0  42818-4 0  9997","SEMIMAJOR_AXIS":"6917.884","PERIOD":"95.438","TLE_LINE2":"2 51132  53.2138 236.7458 0001087  89.1866 270.9250 15.08838749 61336","BSTAR":"0.00004281800000"},{"REF_FRAME":"TEME","MEAN_MOTION_DDOT":"0.0000000000000","TIME_SYSTEM":"UTC","SITE":"AFETR","EPOCH":"2023-02-24T20:56:19.487328","COUNTRY_CODE":"US","CENTER_NAME":"EARTH","OBJECT_ID":"2022-005AF","MEAN_ANOMALY":"257.9207","OBJECT_TYPE":"PAYLOAD","MEAN_ELEMENT_THEORY":"SGP4","RCS_SIZE":"LARGE","APOAPSIS":"540.534","REV_AT_EPOCH":"6133","EPHEMERIS_TYPE":"0","MEAN_MOTION_DOT":"0.00001340","MEAN_MOTION":"15.08837853","INCLINATION":"53.2140","PERIAPSIS":"538.970","LAUNCH_DATE":"2022-01-19","DECAY_DATE":null,"CLASSIFICATION_TYPE":"U","NORAD_CAT_ID":"51133","OBJECT_NAME":"STARLINK-3356","ECCENTRICITY":"0.00011300","GP_ID":"226778160","RA_OF_ASC_NODE":"236.7946","FILE":"3835059","ELEMENT_SET_NO":"999","ARG_OF_PERICENTER":"102.1912","SEMIMAJOR_AXIS":"6917.887","TLE_LINE1":"1 51133U 22005AF  23055.87244777  .00001340  00000-0  10224-3 0  9993","PERIOD":"95.438","TLE_LINE2":"2 51133  53.2140 236.7946 0001130 102.1912 257.9207 15.08837853 61331","BSTAR":"0.00010224000000"},{"PERIOD":"95.438","TLE_LINE1":"1 51134U 22005AG  23055.77496514  .00000709  00000-0  62623-4 0  9990","SEMIMAJOR_AXIS":"6917.894","BSTAR":"0.00006262300000","TLE_LINE2":"2 51134  53.2158 227.2326 0001012  83.9059 276.2048 15.08835635 61473","RA_OF_ASC_NODE":"227.2326","ECCENTRICITY":"0.00010120","GP_ID":"226778909","OBJECT_NAME":"STARLINK-3183","ELEMENT_SET_NO":"999","ARG_OF_PERICENTER":"83.9059","FILE":"3835059","DECAY_DATE":null,"NORAD_CAT_ID":"51134","CLASSIFICATION_TYPE":"U","EPHEMERIS_TYPE":"0","REV_AT_EPOCH":"6147","APOAPSIS":"540.459","RCS_SIZE":"LARGE","MEAN_ELEMENT_THEORY":"SGP4","LAUNCH_DATE":"2022-01-19","INCLINATION":"53.2158","PERIAPSIS":"539.059","MEAN_MOTION":"15.08835635","MEAN_MOTION_DOT":"0.00000709","OBJECT_TYPE":"PAYLOAD","MEAN_ANOMALY":"276.2048","OBJECT_ID":"2022-005AG","CENTER_NAME":"EARTH","SITE":"AFETR","COUNTRY_CODE":"US","EPOCH":"2023-02-24T18:35:56.988096","TIME_SYSTEM":"UTC","REF_FRAME":"TEME","MEAN_MOTION_DDOT":"0.0000000000000"}];
